[
    {
        "Altitude(m)": 610399.5556965768,
        "Argument of Periapsis(deg)": 0.0,
        "Eccentricity": 0.0,
        "Inclination(deg)": 60.0,
        "Latitude(deg)": 52.11140904060258,
        "Longitude(deg)": 32.584170711283825,
        "Mean Anomaly(deg)": 65.45449999999998,
        "RAAN(deg)": 85.00000000000001,
        "Satellite Name": "Test1 378",
        "Satellite Number": 378,
        "Semi-Major Axis(m)": 6980739.136638005,
        "Time(s)": 0
    },
    {
        "Altitude(m)": 610481.7072140824,
        "Argument of Periapsis(deg)": 0.00010418945913296404,
        "Eccentricity": 0.0,
        "Inclination(deg)": 60.0,
        "Latitude(deg)": 52.47101272365207,
        "Longitude(deg)": 33.366306490756294,
        "Mean Anomaly(deg)": 66.07460614546183,
        "RAAN(deg)": 84.99957995086027,
        "Satellite Name": "Test1 378",
        "Satellite Number": 378,
        "Semi-Major Axis(m)": 6980739.136638005,
        "Time(s)": 10
    },
    {
        "Altitude(m)": 610562.3975442518,
        "Argument of Periapsis(deg)": 0.0002083789182659281,
        "Eccentricity": 0.0,
        "Inclination(deg)": 60.0,
        "Latitude(deg)": 52.8247690134462,
        "Longitude(deg)": 34.16185536231734,
        "Mean Anomaly(deg)": 66.69471229092366,
        "RAAN(deg)": 84.99915990172053,
        "Satellite Name": "Test1 378",
        "Satellite Number": 378,
        "Semi-Major Axis(m)": 6980739.136638005,
        "Time(s)": 20
    },
    {
        "Altitude(m)": 610641.5792209647,
        "Argument of Periapsis(deg)": 0.00031256837739889213,
        "Eccentricity": 0.0,
        "Inclination(deg)": 60.0,
        "Latitude(deg)": 53.17250838223781,
        "Longitude(deg)": 34.97098184133167,
        "Mean Anomaly(deg)": 67.31481843638551,
        "RAAN(deg)": 84.99873985258077,
        "Satellite Name": "Test1 378",
        "Satellite Number": 378,
        "Semi-Major Axis(m)": 6980739.136638005,
        "Time(s)": 30
    },
    {
        "Altitude(m)": 610719.2057345598,
        "Argument of Periapsis(deg)": 0.0004167578365318562,
        "Eccentricity": 0.0,
        "Inclination(deg)": 60.0,
        "Latitude(deg)": 53.51405782629518,
        "Longitude(deg)": 35.793838830743184,
        "Mean Anomaly(deg)": 67.93492458184731,
        "RAAN(deg)": 84.99831980344103,
        "Satellite Name": "Test1 378",
        "Satellite Number": 378,
        "Semi-Major Axis(m)": 6980739.136638005,
        "Time(s)": 40
    },
    {
        "Altitude(m)": 610795.2315541528,
        "Argument of Periapsis(deg)": 0.0005209472956648203,
        "Eccentricity": 0.0,
        "Inclination(deg)": 60.0,
        "Latitude(deg)": 53.84924098786234,
        "Longitude(deg)": 36.63056520686844,
        "Mean Anomaly(deg)": 68.55503072730913,
        "RAAN(deg)": 84.99789975430129,
        "Satellite Name": "Test1 378",
        "Satellite Number": 378,
        "Semi-Major Axis(m)": 6980739.136638005,
        "Time(s)": 50
    },
    {
        "Altitude(m)": 610869.6121494768,
        "Argument of Periapsis(deg)": 0.0006251367547977843,
        "Eccentricity": 0.0,
        "Inclination(deg)": 60.0,
        "Latitude(deg)": 54.17787830144684,
        "Longitude(deg)": 37.48128485241823,
        "Mean Anomaly(deg)": 69.17513687277096,
        "RAAN(deg)": 84.99747970516155,
        "Satellite Name": "Test1 378",
        "Satellite Number": 378,
        "Semi-Major Axis(m)": 6980739.136638005,
        "Time(s)": 60
    },
    {
        "Altitude(m)": 610942.3040122032,
        "Argument of Periapsis(deg)": 0.0007293262139307483,
        "Eccentricity": 0.0,
        "Inclination(deg)": 60.0,
        "Latitude(deg)": 54.49978716609653,
        "Longitude(deg)": 38.346105628177455,
        "Mean Anomaly(deg)": 69.79524301823281,
        "RAAN(deg)": 84.9970596560218,
        "Satellite Name": "Test1 378",
        "Satellite Number": 378,
        "Semi-Major Axis(m)": 6980739.136638005,
        "Time(s)": 70
    },
    {
        "Altitude(m)": 611013.2646767686,
        "Argument of Periapsis(deg)": 0.0008335156730637124,
        "Eccentricity": 0.0,
        "Inclination(deg)": 60.0,
        "Latitude(deg)": 54.81478214528804,
        "Longitude(deg)": 39.22511677608423,
        "Mean Anomaly(deg)": 70.41534916369464,
        "RAAN(deg)": 84.99663960688207,
        "Satellite Name": "Test1 378",
        "Satellite Number": 378,
        "Semi-Major Axis(m)": 6980739.136638005,
        "Time(s)": 80
    },
    {
        "Altitude(m)": 611082.4527406693,
        "Argument of Periapsis(deg)": 0.0009377051321966765,
        "Eccentricity": 0.0,
        "Inclination(deg)": 60.0,
        "Latitude(deg)": 55.12267519599032,
        "Longitude(deg)": 40.118387786503945,
        "Mean Anomaly(deg)": 71.03545530915646,
        "RAAN(deg)": 84.99621955774232,
        "Satellite Name": "Test1 378",
        "Satellite Number": 378,
        "Semi-Major Axis(m)": 6980739.136638005,
        "Time(s)": 90
    },
    {
        "Altitude(m)": 611149.8278842502,
        "Argument of Periapsis(deg)": 0.0010418945913296407,
        "Eccentricity": 0.0,
        "Inclination(deg)": 60.0,
        "Latitude(deg)": 55.42327592836103,
        "Longitude(deg)": 41.02596722541237,
        "Mean Anomaly(deg)": 71.6555614546183,
        "RAAN(deg)": 84.99579950860257,
        "Satellite Name": "Test1 378",
        "Satellite Number": 378,
        "Semi-Major Axis(m)": 6980739.136638005,
        "Time(s)": 100
    },
    {
        "Altitude(m)": 611215.3508899435,
        "Argument of Periapsis(deg)": 0.0011460840504626045,
        "Eccentricity": 0.0,
        "Inclination(deg)": 60.0,
        "Latitude(deg)": 55.716391897402644,
        "Longitude(deg)": 41.94788001883774,
        "Mean Anomaly(deg)": 72.27566760008014,
        "RAAN(deg)": 84.99537945946282,
        "Satellite Name": "Test1 378",
        "Satellite Number": 378,
        "Semi-Major Axis(m)": 6980739.136638005,
        "Time(s)": 110
    },
    {
        "Altitude(m)": 611278.9836609744,
        "Argument of Periapsis(deg)": 0.0012502735095955685,
        "Eccentricity": 0.0,
        "Inclination(deg)": 60.0,
        "Latitude(deg)": 56.001828927740874,
        "Longitude(deg)": 42.88412623226046,
        "Mean Anomaly(deg)": 72.89577374554197,
        "RAAN(deg)": 84.99495941032309,
        "Satellite Name": "Test1 378",
        "Satellite Number": 378,
        "Semi-Major Axis(m)": 6980739.136638005,
        "Time(s)": 120
    },
    {
        "Altitude(m)": 611340.6892395039,
        "Argument of Periapsis(deg)": 0.0013544629687285324,
        "Eccentricity": 0.0,
        "Inclination(deg)": 60.0,
        "Latitude(deg)": 56.27939147247094,
        "Longitude(deg)": 43.834679845816346,
        "Mean Anomaly(deg)": 73.51587989100379,
        "RAAN(deg)": 84.99453936118334,
        "Satellite Name": "Test1 378",
        "Satellite Number": 378,
        "Semi-Major Axis(m)": 6980739.136638005,
        "Time(s)": 130
    },
    {
        "Altitude(m)": 611400.4318242524,
        "Argument of Periapsis(deg)": 0.0014586524278614966,
        "Eccentricity": 0.0,
        "Inclination(deg)": 60.0,
        "Latitude(deg)": 56.54888300676342,
        "Longitude(deg)": 44.7994860279516,
        "Mean Anomaly(deg)": 74.13598603646561,
        "RAAN(deg)": 84.99411931204361,
        "Satellite Name": "Test1 378",
        "Satellite Number": 378,
        "Semi-Major Axis(m)": 6980739.136638005,
        "Time(s)": 140
    },
    {
        "Altitude(m)": 611458.1767874965,
        "Argument of Periapsis(deg)": 0.0015628418869944607,
        "Eccentricity": 0.0,
        "Inclination(deg)": 60.0,
        "Latitude(deg)": 56.81010645662961,
        "Longitude(deg)": 45.77845995059743,
        "Mean Anomaly(deg)": 74.75609218192744,
        "RAAN(deg)": 84.99369926290386,
        "Satellite Name": "Test1 378",
        "Satellite Number": 378,
        "Semi-Major Axis(m)": 6980739.136638005,
        "Time(s)": 150
    },
    {
        "Altitude(m)": 611513.8906915638,
        "Argument of Periapsis(deg)": 0.0016670313461274247,
        "Eccentricity": 0.0,
        "Inclination(deg)": 60.0,
        "Latitude(deg)": 57.06286466289501,
        "Longitude(deg)": 46.77148565204378,
        "Mean Anomaly(deg)": 75.37619832738929,
        "RAAN(deg)": 84.99327921376413,
        "Satellite Name": "Test1 378",
        "Satellite Number": 378,
        "Semi-Major Axis(m)": 6980739.136638005,
        "Time(s)": 160
    },
    {
        "Altitude(m)": 611567.5413047032,
        "Argument of Periapsis(deg)": 0.0017712208052603888,
        "Eccentricity": 0.0,
        "Inclination(deg)": 60.0,
        "Latitude(deg)": 57.30696088004011,
        "Longitude(deg)": 47.778413455332256,
        "Mean Anomaly(deg)": 75.99630447285112,
        "RAAN(deg)": 84.99285916462438,
        "Satellite Name": "Test1 378",
        "Satellite Number": 378,
        "Semi-Major Axis(m)": 6980739.136638005,
        "Time(s)": 170
    },
    {
        "Altitude(m)": 611619.097616394,
        "Argument of Periapsis(deg)": 0.001875410264393353,
        "Eccentricity": 0.0,
        "Inclination(deg)": 60.0,
        "Latitude(deg)": 57.54219930913942,
        "Longitude(deg)": 48.79905899009698,
        "Mean Anomaly(deg)": 76.61641061831294,
        "RAAN(deg)": 84.99243911548464,
        "Satellite Name": "Test1 378",
        "Satellite Number": 378,
        "Semi-Major Axis(m)": 6980739.136638005,
        "Time(s)": 180
    },
    {
        "Altitude(m)": 611668.5298520465,
        "Argument of Periapsis(deg)": 0.0019795997235263173,
        "Eccentricity": 0.0,
        "Inclination(deg)": 60.0,
        "Latitude(deg)": 57.76838566364732,
        "Longitude(deg)": 49.833202328426225,
        "Mean Anomaly(deg)": 77.23651676377476,
        "RAAN(deg)": 84.9920190663449,
        "Satellite Name": "Test1 378",
        "Satellite Number": 378,
        "Semi-Major Axis(m)": 6980739.136638005,
        "Time(s)": 190
    }
]